[{"CCSDS_OMM_VERS":"2.0","COMMENT":"GENERATED VIA SPACE-TRACK.ORG API","CREATION_DATE":"2020-09-10T21:12:49","ORIGINATOR":"18 SPCS","OBJECT_NAME":"ONEWEB-0027","OBJECT_ID":"2020-020J","CENTER_NAME":"EARTH","REF_FRAME":"TEME","TIME_SYSTEM":"UTC","MEAN_ELEMENT_THEORY":"SGP4","EPOCH":"2020-09-10T06:00:00.999648","MEAN_MOTION":"14.89894784","ECCENTRICITY":"0.00284210","INCLINATION":"87.5591","RA_OF_ASC_NODE":"83.7030","ARG_OF_PERICENTER":"38.9789","MEAN_ANOMALY":"266.5472","EPHEMERIS_TYPE":"0","CLASSIFICATION_TYPE":"U","NORAD_CAT_ID":"45432","ELEMENT_SET_NO":"999","REV_AT_EPOCH":"175","BSTAR":"-0.00294600000000","MEAN_MOTION_DOT":"-0.00028362","MEAN_MOTION_DDOT":"0.0000000000000","SEMIMAJOR_AXIS":"6976.401","PERIOD":"96.651","APOAPSIS":"618.093","PERIAPSIS":"578.438","OBJECT_TYPE":"PAYLOAD","RCS_SIZE":"LARGE","COUNTRY_CODE":"UK","LAUNCH_DATE":"2020-03-21","SITE":"TTMTR","DECAY_DATE":null,"FILE":"2818987","GP_ID":"161111936","TLE_LINE0":"0 ONEWEB-0027","TLE_LINE1":"1 45432U 20020J   20254.25001157 -.00028362 +00000-0 -29460-2 0  9992","TLE_LINE2":"2 45432 087.5591 083.7030 0028421 038.9789 266.5472 14.89894784001754"},{"CCSDS_OMM_VERS":"2.0","COMMENT":"GENERATED VIA SPACE-TRACK.ORG API","CREATION_DATE":"2020-09-10T11:06:09","ORIGINATOR":"18 SPCS","OBJECT_NAME":"ONEWEB-0027","OBJECT_ID":"2020-020J","CENTER_NAME":"EARTH","REF_FRAME":"TEME","TIME_SYSTEM":"UTC","MEAN_ELEMENT_THEORY":"SGP4","EPOCH":"2020-09-10T10:00:00.999936","MEAN_MOTION":"14.89852554","ECCENTRICITY":"0.00283370","INCLINATION":"87.5591","RA_OF_ASC_NODE":"83.6515","ARG_OF_PERICENTER":"38.3575","MEAN_ANOMALY":"80.5087","EPHEMERIS_TYPE":"0","CLASSIFICATION_TYPE":"U","NORAD_CAT_ID":"45432","ELEMENT_SET_NO":"999","REV_AT_EPOCH":"2590","BSTAR":"0.00701460000000","MEAN_MOTION_DOT":"0.00068472","MEAN_MOTION_DDOT":"0.0000000000000","SEMIMAJOR_AXIS":"6976.532","PERIOD":"96.653","APOAPSIS":"618.167","PERIAPSIS":"578.628","OBJECT_TYPE":"PAYLOAD","RCS_SIZE":"LARGE","COUNTRY_CODE":"UK","LAUNCH_DATE":"2020-03-21","SITE":"TTMTR","DECAY_DATE":null,"FILE":"2818400","GP_ID":"161082555","TLE_LINE0":"0 ONEWEB-0027","TLE_LINE1":"1 45432U 20020J   20254.41667824  .00068472  00000-0  70146-2 0  9990","TLE_LINE2":"2 45432  87.5591  83.6515 0028337  38.3575  80.5087 14.89852554 25902"},{"CCSDS_OMM_VERS":"2.0","COMMENT":"GENERATED VIA SPACE-TRACK.ORG API","CREATION_DATE":"2020-09-10T20:26:09","ORIGINATOR":"18 SPCS","OBJECT_NAME":"ONEWEB-0027","OBJECT_ID":"2020-020J","CENTER_NAME":"EARTH","REF_FRAME":"TEME","TIME_SYSTEM":"UTC","MEAN_ELEMENT_THEORY":"SGP4","EPOCH":"2020-09-10T20:00:01.000224","MEAN_MOTION":"14.89866594","ECCENTRICITY":"0.00283360","INCLINATION":"87.5592","RA_OF_ASC_NODE":"83.5213","ARG_OF_PERICENTER":"36.8146","MEAN_ANOMALY":"155.3787","EPHEMERIS_TYPE":"0","CLASSIFICATION_TYPE":"U","NORAD_CAT_ID":"45432","ELEMENT_SET_NO":"999","REV_AT_EPOCH":"2596","BSTAR":"0.00304560000000","MEAN_MOTION_DOT":"0.00029594","MEAN_MOTION_DDOT":"0.0000000000000","SEMIMAJOR_AXIS":"6976.489","PERIOD":"96.652","APOAPSIS":"618.122","PERIAPSIS":"578.585","OBJECT_TYPE":"PAYLOAD","RCS_SIZE":"LARGE","COUNTRY_CODE":"UK","LAUNCH_DATE":"2020-03-21","SITE":"TTMTR","DECAY_DATE":null,"FILE":"2818804","GP_ID":"161088234","TLE_LINE0":"0 ONEWEB-0027","TLE_LINE1":"1 45432U 20020J   20254.83334491  .00029594  00000-0  30456-2 0  9999","TLE_LINE2":"2 45432  87.5592  83.5213 0028336  36.8146 155.3787 14.89866594 25966"},{"CCSDS_OMM_VERS":"2.0","COMMENT":"GENERATED VIA SPACE-TRACK.ORG API","CREATION_DATE":"2020-09-11T04:19:45","ORIGINATOR":"18 SPCS","OBJECT_NAME":"ONEWEB-0027","OBJECT_ID":"2020-020J","CENTER_NAME":"EARTH","REF_FRAME":"TEME","TIME_SYSTEM":"UTC","MEAN_ELEMENT_THEORY":"SGP4","EPOCH":"2020-09-10T22:00:00.999936","MEAN_MOTION":"14.89856405","ECCENTRICITY":"0.00283650","INCLINATION":"87.5593","RA_OF_ASC_NODE":"83.4954","ARG_OF_PERICENTER":"36.6091","MEAN_ANOMALY":"242.2493","EPHEMERIS_TYPE":"0","CLASSIFICATION_TYPE":"U","NORAD_CAT_ID":"45432","ELEMENT_SET_NO":"999","REV_AT_EPOCH":"176","BSTAR":"0.00636160000000","MEAN_MOTION_DOT":"0.00062052","MEAN_MOTION_DDOT":"0.0000000000000","SEMIMAJOR_AXIS":"6976.520","PERIOD":"96.653","APOAPSIS":"618.174","PERIAPSIS":"578.597","OBJECT_TYPE":"PAYLOAD","RCS_SIZE":"LARGE","COUNTRY_CODE":"UK","LAUNCH_DATE":"2020-03-21","SITE":"TTMTR","DECAY_DATE":null,"FILE":"2819141","GP_ID":"161135069","TLE_LINE0":"0 ONEWEB-0027","TLE_LINE1":"1 45432U 20020J   20254.91667824 +.00062052 +00000-0 +63616-2 0  9997","TLE_LINE2":"2 45432 087.5593 083.4954 0028365 036.6091 242.2493 14.89856405001769"},{"CCSDS_OMM_VERS":"2.0","COMMENT":"GENERATED VIA SPACE-TRACK.ORG API","CREATION_DATE":"2020-09-11T14:36:10","ORIGINATOR":"18 SPCS","OBJECT_NAME":"ONEWEB-0027","OBJECT_ID":"2020-020J","CENTER_NAME":"EARTH","REF_FRAME":"TEME","TIME_SYSTEM":"UTC","MEAN_ELEMENT_THEORY":"SGP4","EPOCH":"2020-09-11T12:00:00.999648","MEAN_MOTION":"14.89880439","ECCENTRICITY":"0.00281930","INCLINATION":"87.5593","RA_OF_ASC_NODE":"83.3162","ARG_OF_PERICENTER":"34.7167","MEAN_ANOMALY":"130.7904","EPHEMERIS_TYPE":"0","CLASSIFICATION_TYPE":"U","NORAD_CAT_ID":"45432","ELEMENT_SET_NO":"999","REV_AT_EPOCH":"2606","BSTAR":"0.00304100000000","MEAN_MOTION_DOT":"0.00029558","MEAN_MOTION_DDOT":"0.0000000000000","SEMIMAJOR_AXIS":"6976.445","PERIOD":"96.652","APOAPSIS":"617.979","PERIAPSIS":"578.642","OBJECT_TYPE":"PAYLOAD","RCS_SIZE":"LARGE","COUNTRY_CODE":"UK","LAUNCH_DATE":"2020-03-21","SITE":"TTMTR","DECAY_DATE":null,"FILE":"2819663","GP_ID":"161148519","TLE_LINE0":"0 ONEWEB-0027","TLE_LINE1":"1 45432U 20020J   20255.50001157  .00029558  00000-0  30410-2 0  9994","TLE_LINE2":"2 45432  87.5593  83.3162 0028193  34.7167 130.7904 14.89880439 26063"},{"CCSDS_OMM_VERS":"2.0","COMMENT":"GENERATED VIA SPACE-TRACK.ORG API","CREATION_DATE":"2020-09-11T18:58:20","ORIGINATOR":"18 SPCS","OBJECT_NAME":"ONEWEB-0027","OBJECT_ID":"2020-020J","CENTER_NAME":"EARTH","REF_FRAME":"TEME","TIME_SYSTEM":"UTC","MEAN_ELEMENT_THEORY":"SGP4","EPOCH":"2020-09-11T14:00:01.000224","MEAN_MOTION":"14.89913029","ECCENTRICITY":"0.00281410","INCLINATION":"87.5594","RA_OF_ASC_NODE":"83.2900","ARG_OF_PERICENTER":"34.3460","MEAN_ANOMALY":"217.8176","EPHEMERIS_TYPE":"0","CLASSIFICATION_TYPE":"U","NORAD_CAT_ID":"45432","ELEMENT_SET_NO":"999","REV_AT_EPOCH":"174","BSTAR":"-0.00378630000000","MEAN_MOTION_DOT":"-0.00036430","MEAN_MOTION_DDOT":"0.0000000000000","SEMIMAJOR_AXIS":"6976.344","PERIOD":"96.649","APOAPSIS":"617.841","PERIAPSIS":"578.577","OBJECT_TYPE":"PAYLOAD","RCS_SIZE":"LARGE","COUNTRY_CODE":"UK","LAUNCH_DATE":"2020-03-21","SITE":"TTMTR","DECAY_DATE":null,"FILE":"2819952","GP_ID":"161172376","TLE_LINE0":"0 ONEWEB-0027","TLE_LINE1":"1 45432U 20020J   20255.58334491 -.00036430 +00000-0 -37863-2 0  9990","TLE_LINE2":"2 45432 087.5594 083.2900 0028141 034.3460 217.8176 14.89913029001746"},{"CCSDS_OMM_VERS":"2.0","COMMENT":"GENERATED VIA SPACE-TRACK.ORG API","CREATION_DATE":"2020-09-12T04:36:59","ORIGINATOR":"18 SPCS","OBJECT_NAME":"ONEWEB-0027","OBJECT_ID":"2020-020J","CENTER_NAME":"EARTH","REF_FRAME":"TEME","TIME_SYSTEM":"UTC","MEAN_ELEMENT_THEORY":"SGP4","EPOCH":"2020-09-11T22:00:00.999936","MEAN_MOTION":"14.89857296","ECCENTRICITY":"0.00281960","INCLINATION":"87.5594","RA_OF_ASC_NODE":"83.1859","ARG_OF_PERICENTER":"33.2057","MEAN_ANOMALY":"205.6431","EPHEMERIS_TYPE":"0","CLASSIFICATION_TYPE":"U","NORAD_CAT_ID":"45432","ELEMENT_SET_NO":"999","REV_AT_EPOCH":"177","BSTAR":"0.00667510000000","MEAN_MOTION_DOT":"0.00065132","MEAN_MOTION_DDOT":"0.0000000000000","SEMIMAJOR_AXIS":"6976.518","PERIOD":"96.653","APOAPSIS":"618.054","PERIAPSIS":"578.712","OBJECT_TYPE":"PAYLOAD","RCS_SIZE":"LARGE","COUNTRY_CODE":"UK","LAUNCH_DATE":"2020-03-21","SITE":"TTMTR","DECAY_DATE":null,"FILE":"2820284","GP_ID":"161199232","TLE_LINE0":"0 ONEWEB-0027","TLE_LINE1":"1 45432U 20020J   20255.91667824 +.00065132 +00000-0 +66751-2 0  9993","TLE_LINE2":"2 45432 087.5594 083.1859 0028196 033.2057 205.6431 14.89857296001773"},{"CCSDS_OMM_VERS":"2.0","COMMENT":"GENERATED VIA SPACE-TRACK.ORG API","CREATION_DATE":"2020-09-12T06:36:10","ORIGINATOR":"18 SPCS","OBJECT_NAME":"ONEWEB-0027","OBJECT_ID":"2020-020J","CENTER_NAME":"EARTH","REF_FRAME":"TEME","TIME_SYSTEM":"UTC","MEAN_ELEMENT_THEORY":"SGP4","EPOCH":"2020-09-12T06:00:00.999648","MEAN_MOTION":"14.89895517","ECCENTRICITY":"0.00281230","INCLINATION":"87.5594","RA_OF_ASC_NODE":"83.0839","ARG_OF_PERICENTER":"32.3130","MEAN_ANOMALY":"193.1925","EPHEMERIS_TYPE":"0","CLASSIFICATION_TYPE":"U","NORAD_CAT_ID":"45432","ELEMENT_SET_NO":"999","REV_AT_EPOCH":"2617","BSTAR":"-0.00247590000000","MEAN_MOTION_DOT":"-0.00023843","MEAN_MOTION_DDOT":"0.0000000000000","SEMIMAJOR_AXIS":"6976.398","PERIOD":"96.651","APOAPSIS":"617.883","PERIAPSIS":"578.644","OBJECT_TYPE":"PAYLOAD","RCS_SIZE":"LARGE","COUNTRY_CODE":"UK","LAUNCH_DATE":"2020-03-21","SITE":"TTMTR","DECAY_DATE":null,"FILE":"2820432","GP_ID":"161202854","TLE_LINE0":"0 ONEWEB-0027","TLE_LINE1":"1 45432U 20020J   20256.25001157 -.00023843  00000-0 -24759-2 0  9999","TLE_LINE2":"2 45432  87.5594  83.0839 0028123  32.3130 193.1925 14.89895517 26170"}]